{
  "type": "FeatureCollection",
  "features": [
    {
      "type": "Feature",
      "properties": {
        "norad_id": 33376,
        "name": "GALAXY 19 (G-19)",
        "group": "intelsat",
        "lat": 0.03305137348724478,
        "lon": 80.04517535057995,
        "alt_km": 35800.81860718903,
        "timestamp": "2025-12-03T06:58:42.908938+00:00",
        "meta_object_name": "GALAXY 19 (G-19)",
        "meta_object_id": "2008-045A",
        "meta_epoch": "2025-12-02T13:19:27.672960",
        "meta_mean_motion": 1.00270895,
        "meta_eccentricity": 0.00034225,
        "meta_inclination": 0.0185,
        "meta_ra_of_asc_node": 11.8954,
        "meta_arg_of_pericenter": 251.6033,
        "meta_mean_anomaly": 271.034,
        "meta_ephemeris_type": 0,
        "meta_classification_type": "U",
        "meta_norad_cat_id": 33376,
        "meta_element_set_no": 999,
        "meta_rev_at_epoch": 6293,
        "meta_bstar": 0,
        "meta_mean_motion_dot": -1.19e-06,
        "meta_mean_motion_ddot": 0,
        "tle_line1": "1 33376U 08045A   25336.55518140 -.00000119  00000+0  00000+0 0  9997",
        "tle_line2": "2 33376   0.0185  11.8954 0003422 251.6033 271.0340  1.00270895 62936"
      },
      "geometry": {
        "type": "Point",
        "coordinates": [
          80.04517535057995,
          0.03305137348724478
        ]
      }
    },
    {
      "type": "Feature",
      "properties": {
        "norad_id": 35493,
        "name": "FM-5",
        "group": "intelsat",
        "lat": 0.017503698112880984,
        "lon": 90.89042769762577,
        "alt_km": 35784.544264571305,
        "timestamp": "2025-12-03T06:58:42.908951+00:00",
        "meta_object_name": "FM-5",
        "meta_object_id": "2009-034A",
        "meta_epoch": "2025-12-02T08:19:38.699616",
        "meta_mean_motion": 1.00271266,
        "meta_eccentricity": 0.00013427,
        "meta_inclination": 0.0253,
        "meta_ra_of_asc_node": 282.057,
        "meta_arg_of_pericenter": 240.7007,
        "meta_mean_anomaly": 307.4775,
        "meta_ephemeris_type": 0,
        "meta_classification_type": "U",
        "meta_norad_cat_id": 35493,
        "meta_element_set_no": 999,
        "meta_rev_at_epoch": 4467,
        "meta_bstar": 0,
        "meta_mean_motion_dot": -1.8e-06,
        "meta_mean_motion_ddot": 0,
        "tle_line1": "1 35493U 09034A   25336.34697569 -.00000180  00000+0  00000+0 0  9996",
        "tle_line2": "2 35493   0.0253 282.0570 0001342 240.7007 307.4775  1.00271266 44679"
      },
      "geometry": {
        "type": "Point",
        "coordinates": [
          90.89042769762577,
          0.017503698112880984
        ]
      }
    },
    {
      "type": "Feature",
      "properties": {
        "norad_id": 36097,
        "name": "INTELSAT 14 (IS-14)",
        "group": "intelsat",
        "lat": -0.004073080995613771,
        "lon": 132.01451274927686,
        "alt_km": 35791.86566189759,
        "timestamp": "2025-12-03T06:58:42.908963+00:00",
        "meta_object_name": "INTELSAT 14 (IS-14)",
        "meta_object_id": "2009-064A",
        "meta_epoch": "2025-12-02T16:59:40.463808",
        "meta_mean_motion": 1.00271665,
        "meta_eccentricity": 0.0002609,
        "meta_inclination": 0.0179,
        "meta_ra_of_asc_node": 300.9534,
        "meta_arg_of_pericenter": 312.0604,
        "meta_mean_anomaly": 28.7185,
        "meta_ephemeris_type": 0,
        "meta_classification_type": "U",
        "meta_norad_cat_id": 36097,
        "meta_element_set_no": 999,
        "meta_rev_at_epoch": 5863,
        "meta_bstar": 0,
        "meta_mean_motion_dot": -2.53e-06,
        "meta_mean_motion_ddot": 0,
        "tle_line1": "1 36097U 09064A   25336.70810722 -.00000253  00000+0  00000+0 0  9999",
        "tle_line2": "2 36097   0.0179 300.9534 0002609 312.0604  28.7185  1.00271665 58632"
      },
      "geometry": {
        "type": "Point",
        "coordinates": [
          132.01451274927686,
          -0.004073080995613771
        ]
      }
    },
    {
      "type": "Feature",
      "properties": {
        "norad_id": 36106,
        "name": "INTELSAT 15 (IS-15)",
        "group": "intelsat",
        "lat": -0.033032074898826494,
        "lon": -97.7970603773518,
        "alt_km": 35776.368115789664,
        "timestamp": "2025-12-03T06:58:42.908976+00:00",
        "meta_object_name": "INTELSAT 15 (IS-15)",
        "meta_object_id": "2009-067A",
        "meta_epoch": "2025-12-02T20:27:15.180192",
        "meta_mean_motion": 1.00270477,
        "meta_eccentricity": 0.0002422,
        "meta_inclination": 0.0143,
        "meta_ra_of_asc_node": 322.7417,
        "meta_arg_of_pericenter": 289.5773,
        "meta_mean_anomaly": 211.6096,
        "meta_ephemeris_type": 0,
        "meta_classification_type": "U",
        "meta_norad_cat_id": 36106,
        "meta_element_set_no": 999,
        "meta_rev_at_epoch": 3926,
        "meta_bstar": 0,
        "meta_mean_motion_dot": -1.65e-06,
        "meta_mean_motion_ddot": 0,
        "tle_line1": "1 36106U 09067A   25336.85225903 -.00000165  00000+0  00000+0 0  9992",
        "tle_line2": "2 36106   0.0143 322.7417 0002422 289.5773 211.6096  1.00270477 39266"
      },
      "geometry": {
        "type": "Point",
        "coordinates": [
          -97.7970603773518,
          -0.033032074898826494
        ]
      }
    },
    {
      "type": "Feature",
      "properties": {
        "norad_id": 36131,
        "name": "DIRECTV 12",
        "group": "intelsat",
        "lat": -0.0020684760362945013,
        "lon": 74.32466327910541,
        "alt_km": 35786.49038393483,
        "timestamp": "2025-12-03T06:58:42.908988+00:00",
        "meta_object_name": "DIRECTV 12",
        "meta_object_id": "2009-075A",
        "meta_epoch": "2025-12-02T15:00:23.376384",
        "meta_mean_motion": 1.00271854,
        "meta_eccentricity": 1.52e-05,
        "meta_inclination": 0.0116,
        "meta_ra_of_asc_node": 83.0864,
        "meta_arg_of_pericenter": 121.693,
        "meta_mean_anomaly": 349.335,
        "meta_ephemeris_type": 0,
        "meta_classification_type": "U",
        "meta_norad_cat_id": 36131,
        "meta_element_set_no": 999,
        "meta_rev_at_epoch": 4458,
        "meta_bstar": 0,
        "meta_mean_motion_dot": -8.3e-07,
        "meta_mean_motion_ddot": 0,
        "tle_line1": "1 36131U 09075A   25336.62527056 -.00000083  00000+0  00000+0 0  9997",
        "tle_line2": "2 36131   0.0116  83.0864 0000152 121.6930 349.3350  1.00271854 44589"
      },
      "geometry": {
        "type": "Point",
        "coordinates": [
          74.32466327910541,
          -0.0020684760362945013
        ]
      }
    },
    {
      "type": "Feature",
      "properties": {
        "norad_id": 36397,
        "name": "INTELSAT 16 (IS-16)",
        "group": "intelsat",
        "lat": 0.019022612390763305,
        "lon": 100.825306479443,
        "alt_km": 35795.426195857224,
        "timestamp": "2025-12-03T06:58:42.908999+00:00",
        "meta_object_name": "INTELSAT 16 (IS-16)",
        "meta_object_id": "2010-006A",
        "meta_epoch": "2025-12-02T20:22:38.728704",
        "meta_mean_motion": 1.0027045,
        "meta_eccentricity": 0.0002358,
        "meta_inclination": 0.0134,
        "meta_ra_of_asc_node": 307.8734,
        "meta_arg_of_pericenter": 306.3519,
        "meta_mean_anomaly": 47.1877,
        "meta_ephemeris_type": 0,
        "meta_classification_type": "U",
        "meta_norad_cat_id": 36397,
        "meta_element_set_no": 999,
        "meta_rev_at_epoch": 5768,
        "meta_bstar": 0,
        "meta_mean_motion_dot": -2.25e-06,
        "meta_mean_motion_ddot": 0,
        "tle_line1": "1 36397U 10006A   25336.84905936 -.00000225  00000+0  00000+0 0  9996",
        "tle_line2": "2 36397   0.0134 307.8734 0002358 306.3519  47.1877  1.00270450 57684"
      },
      "geometry": {
        "type": "Point",
        "coordinates": [
          100.825306479443,
          0.019022612390763305
        ]
      }
    },
    {
      "type": "Feature",
      "properties": {
        "norad_id": 37185,
        "name": "XM-5",
        "group": "intelsat",
        "lat": 0.053256927476367136,
        "lon": 61.83461238753344,
        "alt_km": 35786.46556817746,
        "timestamp": "2025-12-03T06:58:42.909011+00:00",
        "meta_object_name": "XM-5",
        "meta_object_id": "2010-053A",
        "meta_epoch": "2025-12-02T10:37:38.767584",
        "meta_mean_motion": 1.00270481,
        "meta_eccentricity": 0.0001582,
        "meta_inclination": 0.0649,
        "meta_ra_of_asc_node": 272.7549,
        "meta_arg_of_pericenter": 239.5567,
        "meta_mean_anomaly": 323.4678,
        "meta_ephemeris_type": 0,
        "meta_classification_type": "U",
        "meta_norad_cat_id": 37185,
        "meta_element_set_no": 999,
        "meta_rev_at_epoch": 5551,
        "meta_bstar": 0,
        "meta_mean_motion_dot": -2e-08,
        "meta_mean_motion_ddot": 0,
        "tle_line1": "1 37185U 10053A   25336.44280981 -.00000002  00000+0  00000+0 0  9999",
        "tle_line2": "2 37185   0.0649 272.7549 0001582 239.5567 323.4678  1.00270481 55516"
      },
      "geometry": {
        "type": "Point",
        "coordinates": [
          61.83461238753344,
          0.053256927476367136
        ]
      }
    }
  ]
}